{"type":"FeatureCollection","features":[{"type":"Feature","properties":{"code":"11","name":"서울특별시","center":[126.9732,37.5658]},"geometry":{"type":"Polygon","coordinates":[[[127.0198,37.701],[127.0958,37.6712],[127.1101,37.6208],[127.11,37.5583],[127.1787,37.5697],[127.1766,37.5454],[127.1465,37.522],[127.1565,37.5019],[127.144,37.4759],[127.1145,37.4593],[127.0683,37.4307],[127.0339,37.462],[127.0093,37.4572],[126.9374,37.4409],[126.8993,37.4385],[126.8867,37.4609],[126.8734,37.4884],[126.8531,37.4823],[126.8217,37.4756],[126.8232,37.4878],[126.8256,37.5204],[126.7985,37.5377],[126.7676,37.5523],[126.7751,37.5659],[126.7937,37.5816],[126.799,37.5922],[126.8773,37.5808],[126.8995,37.5898],[126.9107,37.6461],[126.9578,37.648],[127.0196,37.701],[127.0198,37.701]]]}},{"type":"Feature","properties":{"code":"21","name":"부산광역시","center":[129.0546,35.211]},"geometry":{"type":"Polygon","coordinates":[[[129.2121,35.3806],[129.2728,35.3233],[129.2613,35.305],[129.2605,35.2924],[129.2592,35.2821],[129.254,35.2728],[129.2434,35.2659],[129.2392,35.2574],[129.2524,35.2599],[129.2525,35.2532],[129.252,35.2451],[129.2452,35.2346],[129.2393,35.222],[129.2272,35.2061],[129.2303,35.1985],[129.207,35.1809],[129.1955,35.1631],[129.1596,35.1582],[129.1214,35.1301],[129.1281,35.1166],[129.1249,35.1049],[129.1155,35.1004],[129.0312,35.0859],[129.0051,35.0739],[128.9776,35.057],[128.9643,35.0352],[128.9347,35.1019],[128.9061,35.079],[128.8364,35.12],[128.9185,35.2172],[129.2031,35.3868],[129.2121,35.3806]],[[129.099,35.0941],[129.0991,35.0929],[129.0992,35.0922],[129.0992,35.0922],[129.0992,35.0917],[129.0997,35.0914],[129.1015,35.0916],[129.1016,35.0917],[129.1017,35.0918],[129.1017,35.0919],[129.1017,35.0921],[129.1018,35.0921],[129.1018,35.0922],[129.1019,35.0923],[129.102,35.0923],[129.1021,35.0924],[129.1022,35.0925],[129.1024,35.0926],[129.1025,35.0927],[129.1027,35.0928],[129.1028,35.0928],[129.1029,35.093],[129.103,35.0931],[129.103,35.0931],[129.1031,35.0932],[129.1032,35.0933],[129.1029,35.0937],[129.1017,35.0945],[129.1,35.095],[129.0988,35.0954],[129.0988,35.0952],[129.0989,35.0951],[129.099,35.0941]]]}},{"type":"Feature","properties":{"code":"23","name":"인천광역시","center":[125.6985,37.6623]},"geometry":{"type":"MultiPolygon","coordinates":[[[[126.5028,37.5307],[126.5397,37.5219],[126.5661,37.5131],[126.5825,37.4913],[126.5053,37.4652],[126.4957,37.4578],[126.4931,37.4553],[126.4849,37.445],[126.437,37.4213],[126.4159,37.417],[126.4127,37.4166],[126.4189,37.4264],[126.3945,37.4455],[126.388,37.4398],[126.3813,37.4398],[126.3818,37.4357],[126.3787,37.4398],[126.376,37.4416],[126.3667,37.444],[126.3714,37.4476],[126.369,37.448],[126.3696,37.4521],[126.3651,37.4572],[126.3607,37.4584],[126.3566,37.4625],[126.3559,37.4689],[126.3604,37.4739],[126.3724,37.4716],[126.4507,37.4994],[126.4949,37.5137],[126.5028,37.5317],[126.5028,37.5307]]],[[[126.6556,37.6379],[126.6992,37.6165],[126.7243,37.5933],[126.7493,37.5847],[126.7752,37.5849],[126.782,37.5721],[126.7734,37.5597],[126.762,37.542],[126.7605,37.5165],[126.7458,37.5151],[126.7468,37.4854],[126.7784,37.4636],[126.7711,37.4312],[126.739,37.3972],[126.6895,37.3859],[126.6514,37.3443],[126.6254,37.3418],[126.6396,37.3647],[126.6329,37.4267],[126.6372,37.4211],[126.6358,37.4214],[126.6149,37.4285],[126.5969,37.4494],[126.6048,37.4647],[126.5957,37.4724],[126.6136,37.4888],[126.6304,37.5002],[126.5995,37.5353],[126.5906,37.5622],[126.6293,37.6106],[126.6556,37.6379]],[[126.6526,37.3535],[126.6522,37.3531],[126.6522,37.3531],[126.6521,37.3531],[126.6521,37.353],[126.6527,37.3527],[126.6538,37.352],[126.6561,37.3506],[126.6569,37.3501],[126.6571,37.35],[126.6578,37.3496],[126.6579,37.3495],[126.6581,37.3494],[126.6582,37.3493],[126.6583,37.3493],[126.6585,37.3491],[126.6589,37.3489],[126.6589,37.3489],[126.6589,37.3489],[126.6589,37.3489],[126.6591,37.349],[126.6593,37.3491],[126.6598,37.3492],[126.6602,37.3494],[126.6605,37.3496],[126.6612,37.3499],[126.6614,37.35],[126.662,37.3503],[126.6628,37.3508],[126.6628,37.3509],[126.6625,37.3511],[126.6624,37.3511],[126.6624,37.3512],[126.6613,37.3518],[126.6609,37.352],[126.6602,37.3525],[126.6595,37.3529],[126.6583,37.3537],[126.6575,37.3541],[126.6568,37.3545],[126.6559,37.3551],[126.6552,37.3556],[126.6548,37.3558],[126.6548,37.3558],[126.6548,37.3558],[126.6548,37.3558],[126.6548,37.3558],[126.6546,37.3555],[126.654,37.355],[126.6535,37.3545],[126.653,37.354],[126.6526,37.3535]]],[[[126.4298,37.8304],[126.5079,37.7799],[126.5139,37.7232],[126.5325,37.6636],[126.5317,37.6331],[126.5426,37.6212],[126.5207,37.6086],[126.5177,37.5982],[126.5239,37.5977],[126.5203,37.5948],[126.5179,37.5932],[126.5243,37.5899],[126.5191,37.5838],[126.5161,37.5799],[126.5106,37.5827],[126.5071,37.5858],[126.5052,37.5876],[126.5037,37.5895],[126.506,37.5915],[126.5123,37.5933],[126.5139,37.5951],[126.495,37.5941],[126.4629,37.5917],[126.3858,37.6077],[126.3757,37.622],[126.3844,37.6384],[126.4038,37.6436],[126.4057,37.6682],[126.353,37.7122],[126.3531,37.7853],[126.4298,37.8304]]],[[[124.6872,37.9805],[124.6985,37.9828],[124.7185,37.9827],[124.7238,37.9794],[124.7298,37.9767],[124.7311,37.9711],[124.7442,37.9621],[124.737,37.9613],[124.7354,37.9546],[124.7345,37.9562],[124.7307,37.9512],[124.7234,37.9537],[124.7041,37.9384],[124.703,37.9343],[124.6993,37.924],[124.6871,37.9189],[124.6784,37.9227],[124.6731,37.9225],[124.6711,37.9205],[124.656,37.9228],[124.6537,37.9232],[124.6432,37.9241],[124.6326,37.9355],[124.626,37.9529],[124.615,37.9742],[124.6203,37.9749],[124.6374,37.9698],[124.6472,37.9731],[124.6555,37.9731],[124.6741,37.9811],[124.6847,37.9807],[124.6872,37.9805]]]]}},{"type":"Feature","properties":{"code":"22","name":"대구광역시","center":[128.6372,35.9699]},"geometry":{"type":"Polygon","coordinates":[[[128.4554,36.3269],[128.5489,36.2855],[128.6212,36.2673],[128.6578,36.2202],[128.7375,36.2001],[128.8808,36.1902],[128.822,36.1003],[128.7265,36.0932],[128.7046,36.0494],[128.7437,35.9648],[128.762,35.8884],[128.7598,35.8677],[128.7243,35.84],[128.7154,35.8113],[128.6778,35.7211],[128.5466,35.7227],[128.4894,35.6359],[128.4431,35.6353],[128.4182,35.6217],[128.3937,35.613],[128.424,35.6983],[128.4728,35.8068],[128.3983,35.8934],[128.4405,35.9335],[128.4879,35.8976],[128.5328,35.9515],[128.617,36.0051],[128.5803,36.0662],[128.554,36.1729],[128.4616,36.2266],[128.4507,36.3257],[128.4554,36.3269]]]}},{"type":"Feature","properties":{"code":"24","name":"광주광역시","center":[126.8319,35.1554]},"geometry":{"type":"Polygon","coordinates":[[[126.7603,35.2587],[126.7836,35.2244],[126.806,35.2193],[126.8227,35.2259],[126.84,35.2327],[126.8536,35.2386],[126.8648,35.2455],[126.8879,35.2465],[126.9279,35.2519],[126.9506,35.2153],[126.9689,35.1806],[127.0082,35.184],[127.0093,35.1314],[126.9576,35.0782],[126.8992,35.0811],[126.8446,35.0661],[126.8205,35.0578],[126.8084,35.0521],[126.7994,35.0593],[126.7581,35.0595],[126.7617,35.0892],[126.7317,35.1123],[126.7012,35.1113],[126.6808,35.1075],[126.6545,35.1372],[126.6718,35.1734],[126.663,35.1929],[126.6806,35.2052],[126.7001,35.2084],[126.7318,35.2454],[126.7595,35.2586],[126.7603,35.2587]]]}},{"type":"Feature","properties":{"code":"25","name":"대전광역시","center":[127.4015,36.3424]},"geometry":{"type":"Polygon","coordinates":[[[127.3989,36.4891],[127.4209,36.4556],[127.4635,36.4603],[127.4818,36.4669],[127.4976,36.445],[127.5145,36.4225],[127.5528,36.4023],[127.5251,36.3767],[127.5038,36.3409],[127.4944,36.3009],[127.4862,36.2603],[127.4691,36.2148],[127.4279,36.2051],[127.3896,36.244],[127.3651,36.2692],[127.363,36.2236],[127.3316,36.1917],[127.3043,36.2289],[127.293,36.2288],[127.2803,36.2499],[127.2841,36.2648],[127.2502,36.2862],[127.2584,36.3176],[127.2756,36.3639],[127.2796,36.4004],[127.2957,36.4228],[127.3369,36.4282],[127.356,36.4539],[127.364,36.475],[127.3581,36.4825],[127.3938,36.4932],[127.3989,36.4891]]]}},{"type":"Feature","properties":{"code":"26","name":"울산광역시","center":[129.3054,35.5313]},"geometry":{"type":"Polygon","coordinates":[[[129.1487,35.7235],[129.4393,35.6552],[129.4411,35.6318],[129.4525,35.6184],[129.4525,35.6158],[129.4587,35.6068],[129.4625,35.6067],[129.463,35.6032],[129.464,35.6006],[129.4575,35.5847],[129.4539,35.5695],[129.4579,35.5645],[129.457,35.5615],[129.458,35.5584],[129.4584,35.5556],[129.4577,35.552],[129.4553,35.5484],[129.4539,35.547],[129.4539,35.5423],[129.452,35.5327],[129.4401,35.5011],[129.4374,35.4848],[129.4121,35.4722],[129.3751,35.4693],[129.3552,35.3962],[129.3456,35.3781],[129.3605,35.3641],[129.3338,35.3547],[129.3188,35.3379],[129.1777,35.4324],[129.1467,35.7247],[129.1487,35.7235]]]}},{"type":"Feature","properties":{"code":"31","name":"경기도","center":[127.1675,37.6201]},"geometry":{"type":"Polygon","coordinates":[[[127.095,38.2811],[127.6059,37.8767],[127.792,37.4159],[127.5695,37.0482],[127.176,36.9623],[126.8442,36.958],[126.6736,37.1378],[126.6567,37.1796],[126.6603,37.2168],[126.6467,37.2787],[126.6836,37.2804],[126.5789,37.2922],[126.6082,37.2738],[126.655,37.2096],[126.6238,37.2272],[126.5996,37.2169],[126.5429,37.2243],[126.5556,37.2768],[126.7172,37.3723],[126.7623,37.4269],[126.7819,37.5461],[126.8716,37.4902],[127.0338,37.4602],[127.167,37.5452],[127.0097,37.6934],[126.7979,37.5868],[126.6071,37.6017],[126.6854,37.8581],[126.8192,38.0167],[126.9649,38.1735],[127.0928,38.2822],[127.095,38.2811]],[[126.8723,37.2758],[126.8714,37.2754],[126.8692,37.2748],[126.8666,37.2741],[126.8654,37.2736],[126.8637,37.2732],[126.8632,37.2741],[126.8631,37.2731],[126.8608,37.2733],[126.8578,37.2739],[126.8551,37.2729],[126.849,37.2686],[126.846,37.2643],[126.8456,37.2599],[126.8485,37.2605],[126.8499,37.2595],[126.8497,37.2575],[126.8506,37.259],[126.8506,37.2598],[126.8497,37.2604],[126.8506,37.2636],[126.8524,37.2677],[126.8571,37.2719],[126.8621,37.2722],[126.8649,37.2725],[126.8669,37.2733],[126.8701,37.2742],[126.872,37.2753],[126.8739,37.2754],[126.8747,37.276],[126.8753,37.2771],[126.8738,37.2764],[126.8723,37.2758]],[[126.7898,37.1751],[126.769,37.1574],[126.7549,37.167],[126.749,37.1677],[126.7471,37.1676],[126.746,37.1665],[126.7468,37.1646],[126.7462,37.1634],[126.7437,37.1578],[126.7427,37.156],[126.7421,37.1548],[126.7413,37.1533],[126.74,37.1517],[126.7375,37.1507],[126.7367,37.1498],[126.7341,37.1501],[126.7334,37.1501],[126.7317,37.1462],[126.7283,37.1402],[126.7276,37.1387],[126.726,37.1336],[126.7147,37.1251],[126.6996,37.1169],[126.6907,37.1161],[126.6867,37.1147],[126.6845,37.1135],[126.7191,37.0856],[126.7253,37.1184],[126.7737,37.1439],[126.7667,37.1464],[126.7418,37.1451],[126.7882,37.1665],[126.7898,37.1751]]]}},{"type":"Feature","properties":{"code":"32","name":"강원특별자치도","center":[128.2683,37.8319]},"geometry":{"type":"Polygon","coordinates":[[[128.3572,38.6136],[128.4982,38.3828],[128.5072,38.3641],[128.5375,38.3137],[128.5535,38.2809],[128.5863,38.2299],[128.6109,38.1726],[128.6754,38.0705],[128.7328,38.0108],[128.7631,37.9727],[128.7754,37.9525],[128.811,37.9167],[128.8331,37.8808],[128.8777,37.8376],[128.9636,37.7579],[129.0465,37.6832],[129.0621,37.6175],[129.1225,37.5201],[129.1857,37.4573],[129.2223,37.3962],[129.2607,37.3499],[129.2921,37.3116],[129.3294,37.272],[129.3464,37.2136],[128.8852,37.0502],[128.3249,37.197],[127.7587,37.3425],[127.4462,38.0512],[127.1903,38.3143],[127.5443,38.3216],[128.3555,38.6134],[128.3572,38.6136]],[[128.9819,37.7438],[128.9821,37.7438],[128.9822,37.7438],[128.9822,37.7439],[128.9824,37.744],[128.9826,37.7441],[128.9827,37.7443],[128.9827,37.7444],[128.9827,37.7444],[128.9825,37.7445],[128.9823,37.7447],[128.9822,37.7448],[128.9819,37.7449],[128.9819,37.745],[128.9817,37.745],[128.9815,37.745],[128.9812,37.745],[128.9811,37.7449],[128.981,37.7448],[128.9809,37.7447],[128.9809,37.7446],[128.981,37.7445],[128.9812,37.7443],[128.9813,37.7442],[128.9814,37.7442],[128.9815,37.7442],[128.9816,37.744],[128.9816,37.744],[128.9818,37.7439],[128.9819,37.7438]]]}},{"type":"Feature","properties":{"code":"33","name":"충청북도","center":[127.9624,36.6381]},"geometry":{"type":"Polygon","coordinates":[[[127.9814,37.2569],[128.2301,37.2273],[128.3218,37.1962],[128.3851,37.1575],[128.484,37.1165],[128.6374,37.0529],[128.4271,36.8813],[128.2377,36.851],[127.9736,36.7261],[127.8909,36.6287],[127.8797,36.4913],[127.8553,36.3309],[128.039,36.2503],[127.983,36.1704],[127.7917,36.0193],[127.6568,36.0494],[127.5952,36.1527],[127.4888,36.2487],[127.5392,36.4204],[127.4282,36.4568],[127.3741,36.5653],[127.3065,36.6015],[127.2873,36.693],[127.3696,36.7616],[127.4017,36.7952],[127.349,36.952],[127.5003,37.0478],[127.6044,37.0687],[127.6297,37.1545],[127.7893,37.1435],[127.9726,37.2564],[127.9814,37.2569]]]}},{"type":"Feature","properties":{"code":"34","name":"충청남도","center":[126.876,36.5352]},"geometry":{"type":"MultiPolygon","coordinates":[[[[126.3599,36.6124],[126.3785,36.6049],[126.3807,36.6059],[126.3829,36.6034],[126.3831,36.597],[126.3742,36.5832],[126.3741,36.5626],[126.3827,36.5287],[126.3814,36.5144],[126.3915,36.511],[126.4018,36.505],[126.41,36.4921],[126.4162,36.467],[126.4142,36.4616],[126.4136,36.4511],[126.4212,36.4422],[126.4297,36.4341],[126.4347,36.4209],[126.4278,36.401],[126.4142,36.406],[126.3975,36.414],[126.3811,36.4211],[126.3541,36.4249],[126.3577,36.4416],[126.3301,36.4422],[126.329,36.4596],[126.3318,36.486],[126.3267,36.5201],[126.3206,36.5646],[126.3227,36.5954],[126.3598,36.6129],[126.3599,36.6124]]],[[[126.4995,37.0646],[126.8054,36.9302],[127.2987,36.8898],[127.1755,36.4944],[127.6318,36.0387],[126.7049,36.0057],[126.6235,36.0816],[126.5597,36.1294],[126.5234,36.1839],[126.5216,36.3003],[126.5255,36.4467],[126.4656,36.5504],[126.2958,36.6575],[126.2166,36.6937],[126.1616,36.6785],[126.1813,36.7141],[126.1705,36.7568],[126.152,36.7367],[126.1227,36.7143],[126.1316,36.7464],[126.1202,36.7734],[126.1583,36.8249],[126.1839,36.8179],[126.2177,36.9042],[126.2886,36.9544],[126.3089,36.871],[126.3084,36.8145],[126.3657,36.8314],[126.4103,36.9142],[126.3631,36.9813],[126.4969,37.0617],[126.4995,37.0646]],[[126.5022,36.5319],[126.4992,36.5289],[126.4916,36.5224],[126.4835,36.5159],[126.4873,36.5087],[126.4934,36.5152],[126.4955,36.5172],[126.4989,36.5221],[126.5072,36.5227],[126.5186,36.5204],[126.5262,36.5178],[126.5329,36.5106],[126.5405,36.504],[126.5601,36.5056],[126.5631,36.5058],[126.5604,36.5138],[126.5598,36.5193],[126.5583,36.5228],[126.5585,36.517],[126.559,36.5089],[126.5449,36.5085],[126.5376,36.5126],[126.5337,36.5171],[126.5276,36.5208],[126.5233,36.5224],[126.517,36.5244],[126.5149,36.5236],[126.5127,36.5266],[126.5078,36.5287],[126.5073,36.5292],[126.5045,36.5316],[126.5022,36.5319]],[[126.6178,36.4948],[126.6149,36.49],[126.6153,36.4881],[126.6136,36.4857],[126.5994,36.4767],[126.586,36.4763],[126.58,36.4805],[126.57,36.4833],[126.5605,36.483],[126.5577,36.4763],[126.5446,36.4722],[126.5386,36.4667],[126.5378,36.4631],[126.5277,36.4564],[126.5267,36.448],[126.5378,36.443],[126.5432,36.4493],[126.5512,36.456],[126.5517,36.4658],[126.5557,36.4656],[126.5521,36.4553],[126.5577,36.4519],[126.5663,36.4532],[126.5676,36.4602],[126.5698,36.4719],[126.5762,36.4733],[126.5901,36.4691],[126.6012,36.4726],[126.6128,36.4828],[126.617,36.4892],[126.6188,36.4946],[126.6178,36.4948]]]]}},{"type":"Feature","properties":{"code":"35","name":"전북특별자치도","center":[127.1107,35.7467]},"geometry":{"type":"Polygon","coordinates":[[[126.973,36.1503],[127.3617,36.0762],[127.7888,36.0156],[127.6662,35.4332],[127.0664,35.3378],[126.7231,35.3677],[126.4933,35.3738],[126.4327,35.4498],[126.6101,35.5543],[126.5603,35.586],[126.494,35.5856],[126.4672,35.6],[126.4679,35.6033],[126.4677,35.6269],[126.4656,35.64],[126.474,35.6429],[126.4921,35.6555],[126.5241,35.7318],[126.5207,35.7375],[126.5881,35.9293],[126.4705,35.8108],[126.4649,35.819],[126.4566,35.8097],[126.4487,35.8077],[126.4466,35.823],[126.4466,35.8316],[126.4641,35.8247],[126.4909,35.8469],[126.5246,35.9447],[126.6538,35.983],[126.9523,36.1555],[126.973,36.1503]]]}},{"type":"Feature","properties":{"code":"36","name":"전라남도","center":[126.8877,34.8868]},"geometry":{"type":"MultiPolygon","coordinates":[[[[126.6952,34.3984],[126.7197,34.3854],[126.7328,34.3718],[126.7327,34.3578],[126.7376,34.3454],[126.7456,34.3291],[126.7691,34.3151],[126.7691,34.3084],[126.7632,34.3039],[126.7726,34.2922],[126.7756,34.288],[126.7692,34.2873],[126.7643,34.2919],[126.7584,34.2915],[126.7501,34.2926],[126.7436,34.2976],[126.7351,34.2978],[126.7381,34.2878],[126.7314,34.2872],[126.7178,34.2969],[126.6976,34.295],[126.6877,34.2979],[126.6744,34.315],[126.6656,34.324],[126.6536,34.3307],[126.6455,34.3282],[126.6474,34.3375],[126.6433,34.3571],[126.6396,34.3788],[126.6646,34.3964],[126.6944,34.3985],[126.6952,34.3984]]],[[[127.2177,34.495],[127.2238,34.4883],[127.2301,34.4817],[127.2345,34.4754],[127.2314,34.4687],[127.2253,34.4593],[127.2199,34.4455],[127.2181,34.4393],[127.2132,34.4348],[127.2088,34.431],[127.1965,34.4311],[127.1817,34.4317],[127.1628,34.4336],[127.1623,34.4282],[127.1451,34.4293],[127.1413,34.4216],[127.1335,34.4295],[127.1236,34.4345],[127.1157,34.4442],[127.1088,34.4479],[127.0997,34.4428],[127.1034,34.4521],[127.098,34.4639],[127.1056,34.4706],[127.1124,34.4839],[127.1244,34.4901],[127.1394,34.4729],[127.1584,34.4788],[127.1809,34.4906],[127.2084,34.4914],[127.2171,34.4953],[127.2177,34.495]]],[[[126.2501,34.5888],[126.3282,34.5475],[126.3756,34.4949],[126.3581,34.4809],[126.3659,34.4434],[126.3261,34.3944],[126.3245,34.4191],[126.3149,34.4031],[126.305,34.4035],[126.2956,34.3964],[126.3008,34.3834],[126.3058,34.3738],[126.2907,34.3727],[126.2849,34.3684],[126.2838,34.387],[126.2725,34.3965],[126.2604,34.3799],[126.2331,34.3691],[126.2095,34.3669],[126.2001,34.3579],[126.183,34.3523],[126.1652,34.3526],[126.1475,34.3659],[126.1312,34.3624],[126.1146,34.3844],[126.0963,34.4083],[126.097,34.422],[126.1126,34.4482],[126.15,34.4779],[126.2073,34.5144],[126.2501,34.589],[126.2501,34.5888]]],[[[127.74,34.7339],[127.7845,34.7167],[127.7892,34.7051],[127.7885,34.7008],[127.7778,34.7014],[127.7739,34.7052],[127.7694,34.7028],[127.7771,34.6973],[127.7817,34.6888],[127.7828,34.6748],[127.7949,34.6707],[127.7959,34.6605],[127.8036,34.6579],[127.7974,34.6455],[127.7981,34.634],[127.7929,34.6247],[127.7915,34.6143],[127.7981,34.6036],[127.8077,34.5964],[127.8016,34.587],[127.7863,34.5855],[127.7726,34.5873],[127.7575,34.5936],[127.7438,34.5999],[127.7372,34.6088],[127.7163,34.6185],[127.7241,34.6369],[127.7211,34.6529],[127.7441,34.6688],[127.7554,34.7049],[127.7398,34.7337],[127.74,34.7339]]],[[[126.0892,34.7747],[126.106,34.7661],[126.1291,34.7624],[126.1501,34.757],[126.1727,34.7497],[126.1765,34.7419],[126.1773,34.7373],[126.1797,34.7199],[126.1782,34.7126],[126.1753,34.7005],[126.1632,34.7008],[126.1459,34.6941],[126.1447,34.6872],[126.1409,34.6876],[126.1475,34.7065],[126.1401,34.7207],[126.1252,34.7246],[126.1136,34.7179],[126.0979,34.7208],[126.0811,34.7072],[126.0738,34.7115],[126.0721,34.7325],[126.0703,34.7351],[126.0707,34.7387],[126.0719,34.7423],[126.0811,34.7532],[126.0646,34.7677],[126.0702,34.7668],[126.0748,34.767],[126.0795,34.7681],[126.0887,34.7749],[126.0892,34.7747]]],[[[126.3004,34.9212],[126.3079,34.9121],[126.3195,34.9124],[126.3385,34.9067],[126.3385,34.8931],[126.327,34.8813],[126.3236,34.8743],[126.3207,34.8621],[126.3581,34.8628],[126.368,34.8559],[126.3656,34.8362],[126.3653,34.8241],[126.3488,34.8141],[126.3326,34.819],[126.3352,34.83],[126.3445,34.8376],[126.3369,34.8447],[126.3131,34.8519],[126.2932,34.8531],[126.2704,34.8472],[126.2577,34.8408],[126.2277,34.852],[126.231,34.8586],[126.2325,34.8633],[126.257,34.8583],[126.2712,34.8697],[126.2783,34.8736],[126.2874,34.8864],[126.3021,34.8934],[126.2815,34.9109],[126.3,34.9215],[126.3004,34.9212]]],[[[126.0567,34.9387],[126.0661,34.936],[126.0775,34.9313],[126.0894,34.9223],[126.0985,34.9098],[126.0967,34.8805],[126.0846,34.8659],[126.0583,34.856],[126.0419,34.8455],[126.0224,34.8598],[126.0203,34.8693],[126.0043,34.8632],[125.9924,34.8626],[125.9854,34.8643],[125.977,34.8645],[125.9812,34.8712],[125.9731,34.8706],[125.9678,34.8728],[125.9707,34.8755],[125.9761,34.8752],[125.9804,34.8775],[125.9922,34.8792],[125.9962,34.8873],[126.0087,34.8982],[126.0138,34.9119],[126.0244,34.9085],[126.0362,34.9129],[126.0404,34.9151],[126.0605,34.922],[126.0606,34.93],[126.0564,34.9387],[126.0567,34.9387]]],[[[126.825,35.4864],[127.5961,34.8805],[127.7464,34.7376],[127.6337,34.6362],[127.577,34.7019],[127.5238,34.8141],[127.3731,34.7417],[127.4755,34.5766],[127.3857,34.4919],[127.3518,34.4811],[127.323,34.4419],[127.2096,34.5232],[127.2427,34.7],[127.166,34.6912],[127.0189,34.6246],[126.9071,34.4545],[126.7725,34.604],[126.6194,34.3625],[126.5187,34.3394],[126.5138,34.4344],[126.3138,34.567],[126.3173,34.749],[126.402,34.8619],[126.3267,34.9711],[126.231,35.0532],[126.3083,35.137],[126.3952,35.0743],[126.3749,35.1576],[126.3889,35.3542],[126.4118,35.3818],[126.8187,35.4865],[126.825,35.4864]],[[126.7603,35.2587],[126.7318,35.2454],[126.7009,35.2083],[126.6807,35.2057],[126.663,35.1929],[126.6716,35.1737],[126.6542,35.1374],[126.6805,35.1075],[126.701,35.111],[126.7316,35.1122],[126.7617,35.0893],[126.7577,35.059],[126.7992,35.0594],[126.8083,35.052],[126.8206,35.0577],[126.8445,35.0661],[126.8991,35.0812],[126.9574,35.0779],[127.0096,35.1308],[127.0082,35.184],[126.9691,35.1806],[126.9506,35.2153],[126.9279,35.2519],[126.8879,35.2465],[126.8648,35.2455],[126.8536,35.2386],[126.84,35.2327],[126.8229,35.2259],[126.806,35.2194],[126.7835,35.2244],[126.761,35.2586],[126.7603,35.2587]],[[126.3949,34.7394],[126.3948,34.7342],[126.3913,34.7335],[126.3901,34.7306],[126.3883,34.7258],[126.4667,34.7185],[126.4547,34.719],[126.442,34.7219],[126.4349,34.7225],[126.4297,34.7237],[126.4279,34.7327],[126.4238,34.7365],[126.421,34.7384],[126.4209,34.7336],[126.4224,34.7325],[126.4215,34.7288],[126.4139,34.7313],[126.4116,34.7315],[126.4107,34.7304],[126.4058,34.731],[126.401,34.7315],[126.3982,34.7333],[126.3955,34.7337],[126.3977,34.7345],[126.3991,34.7348],[126.3996,34.7327],[126.4022,34.7315],[126.404,34.7329],[126.4037,34.7383],[126.4021,34.7383],[126.3989,34.7393],[126.3949,34.7394]]]]}},{"type":"Feature","properties":{"code":"37","name":"경상북도","center":[129.462,36.5971]},"geometry":{"type":"MultiPolygon","coordinates":[[[[129.34,37.1453],[129.4274,37.0627],[129.4093,36.977],[129.4172,36.9048],[129.424,36.8599],[129.4782,36.7676],[129.4308,36.6568],[129.4404,36.5518],[129.4474,36.5051],[129.4366,36.4476],[129.3985,36.372],[129.3788,36.3013],[129.3797,36.2445],[129.3986,36.1668],[129.3801,36.036],[129.5231,36.0549],[129.5768,36.0589],[129.5827,36.0182],[129.5664,35.9949],[129.5482,35.9513],[129.5306,35.9045],[129.5337,35.8687],[129.5068,35.8038],[129.4731,35.7038],[129.2626,35.6911],[128.7609,35.874],[128.4279,36.2989],[128.337,35.6452],[128.0032,36.2077],[128.0575,36.8114],[129.34,37.1453]]],[[[130.9056,37.5491],[130.9091,37.5448],[130.9152,37.5392],[130.9093,37.5241],[130.9108,37.5212],[130.9159,37.5158],[130.9147,37.5044],[130.9154,37.5023],[130.9133,37.493],[130.9207,37.4862],[130.911,37.4825],[130.9072,37.4779],[130.892,37.4745],[130.8758,37.4553],[130.8718,37.4556],[130.86,37.4603],[130.8576,37.4601],[130.8424,37.4626],[130.8203,37.4729],[130.8102,37.4748],[130.8018,37.4899],[130.8028,37.5061],[130.7932,37.516],[130.7984,37.5196],[130.8092,37.5217],[130.8279,37.5292],[130.8421,37.5344],[130.8532,37.5345],[130.868,37.5376],[130.8756,37.5432],[130.9039,37.549],[130.9056,37.5491]]]]}},{"type":"Feature","properties":{"code":"38","name":"경상남도","center":[128.4163,35.3074]},"geometry":{"type":"MultiPolygon","coordinates":[[[[128.0303,34.9219],[128.0286,34.9093],[128.0141,34.8888],[128.0245,34.8664],[128.0312,34.8881],[128.0479,34.8965],[128.0465,34.8836],[128.0605,34.8798],[128.0665,34.874],[128.0669,34.8697],[128.0654,34.8631],[128.0606,34.8572],[128.0595,34.8542],[128.071,34.8451],[128.0817,34.8385],[128.0871,34.83],[128.078,34.8282],[128.0694,34.8319],[128.0568,34.8363],[128.0384,34.8402],[128.0176,34.8381],[127.9826,34.8385],[127.9651,34.8575],[127.9719,34.878],[127.9796,34.8863],[127.9879,34.8931],[127.9881,34.9011],[127.9941,34.9049],[127.9962,34.9101],[128.0095,34.9179],[128.0297,34.922],[128.0303,34.9219]]],[[[127.8912,34.9469],[127.9304,34.9254],[127.9229,34.9019],[127.8987,34.8752],[127.9124,34.8502],[127.9417,34.8193],[128.0411,34.8237],[128.0634,34.8158],[128.0609,34.7986],[128.0578,34.7522],[128.043,34.7166],[128.0353,34.7049],[128.0239,34.7133],[127.9936,34.7147],[127.9786,34.7114],[127.9569,34.7097],[127.9514,34.7243],[127.946,34.7424],[127.9109,34.7692],[127.9102,34.733],[127.8949,34.7247],[127.8773,34.7246],[127.859,34.729],[127.8437,34.7479],[127.8477,34.7801],[127.8184,34.8264],[127.8155,34.8637],[127.8256,34.8938],[127.8428,34.9002],[127.8563,34.9136],[127.8908,34.9471],[127.8912,34.9469]]],[[[128.6787,35.0408],[128.7167,35.0092],[128.7114,34.9655],[128.7165,34.9295],[128.7151,34.9032],[128.7041,34.893],[128.7509,34.8927],[128.7435,34.8712],[128.7291,34.8422],[128.7359,34.7866],[128.6689,34.8052],[128.6647,34.7796],[128.6547,34.7421],[128.6776,34.7416],[128.6755,34.7341],[128.6685,34.7369],[128.6521,34.7388],[128.6294,34.7289],[128.585,34.7215],[128.5886,34.7371],[128.5773,34.7456],[128.5799,34.7607],[128.5787,34.7776],[128.5539,34.7918],[128.5266,34.8283],[128.4766,34.8592],[128.5438,34.9148],[128.5988,34.9541],[128.6595,34.9977],[128.6678,35.0093],[128.6787,35.0408]]],[[[127.8831,35.9059],[129.0172,35.5238],[128.7888,35.099],[128.7365,35.0971],[128.7002,35.1185],[128.5689,35.1912],[128.5971,35.1233],[128.5997,35.0572],[128.5487,35.0943],[128.4875,35.1081],[128.3697,35.0283],[128.4855,35.0387],[128.4201,34.9945],[128.4464,34.901],[128.4341,34.8383],[128.3938,34.8667],[128.3269,34.8776],[128.3439,34.9391],[128.2816,34.9137],[128.2573,34.9378],[128.1967,34.9114],[128.1538,34.907],[128.0978,34.9205],[128.0421,35.0038],[128.0263,35.0389],[128.0135,35.0435],[128.0135,34.9905],[127.974,34.9895],[127.9149,34.9926],[127.8481,34.947],[127.8795,35.9099],[127.8831,35.9059]],[[127.7922,34.9414],[127.7922,34.9414],[127.7924,34.9411],[127.7925,34.941],[127.7925,34.9409],[127.7924,34.9407],[127.7925,34.9406],[127.7926,34.9399],[127.7928,34.939],[127.7929,34.9387],[127.7935,34.9372],[127.7935,34.9366],[127.794,34.9354],[127.7943,34.9338],[127.7944,34.9335],[127.795,34.9319],[127.7953,34.9308],[127.8031,34.9323],[127.8029,34.9333],[127.8027,34.9342],[127.8026,34.9347],[127.8023,34.9355],[127.8019,34.9366],[127.8017,34.9369],[127.8017,34.937],[127.8011,34.9393],[127.8007,34.9407],[127.8001,34.9426],[127.7999,34.943],[127.7985,34.9427],[127.7969,34.9424],[127.7953,34.9421],[127.7928,34.9416],[127.7922,34.9414]],[[127.7964,34.9309],[127.797,34.929],[127.7971,34.9284],[127.7976,34.9266],[127.798,34.9254],[127.7981,34.9249],[127.7981,34.9252],[127.798,34.9255],[127.7979,34.9259],[127.7978,34.9265],[127.7979,34.9268],[127.7985,34.9269],[127.7988,34.9269],[127.7987,34.9268],[127.7989,34.9266],[127.7996,34.9269],[127.8004,34.9272],[127.8012,34.9272],[127.8021,34.9266],[127.8027,34.9264],[127.8033,34.9265],[127.804,34.9264],[127.8045,34.9264],[127.8046,34.9267],[127.8047,34.9265],[127.805,34.926],[127.8047,34.9272],[127.8042,34.929],[127.804,34.9298],[127.8037,34.9307],[127.797,34.931],[127.7964,34.9309]],[[128.1217,34.9043],[128.121,34.9042],[128.1199,34.9042],[128.1191,34.9041],[128.1187,34.9036],[128.1183,34.9038],[128.1182,34.9038],[128.1179,34.9033],[128.1176,34.9027],[128.1166,34.9014],[128.1182,34.9],[128.1185,34.8998],[128.1195,34.899],[128.1221,34.8969],[128.123,34.8969],[128.1254,34.8975],[128.1259,34.8975],[128.1266,34.8976],[128.1266,34.8978],[128.1264,34.8979],[128.1264,34.8983],[128.1263,34.8984],[128.126,34.8985],[128.1256,34.899],[128.1256,34.8997],[128.1255,34.8999],[128.1252,34.9003],[128.1249,34.9005],[128.1246,34.901],[128.1246,34.9012],[128.1242,34.9015],[128.1232,34.9017],[128.1227,34.9021],[128.1224,34.9042],[128.1223,34.9048],[128.1217,34.9043]]]]}},{"type":"Feature","properties":{"code":"39","name":"제주특별자치도","center":[126.5469,33.3894]},"geometry":{"type":"Polygon","coordinates":[[[126.7791,33.5661],[126.8294,33.5506],[126.8624,33.526],[126.9021,33.5211],[126.9214,33.4614],[126.9264,33.4536],[126.9165,33.4315],[126.8986,33.3883],[126.8724,33.3658],[126.8476,33.3348],[126.8166,33.3071],[126.7752,33.3042],[126.7485,33.2802],[126.6792,33.2704],[126.631,33.2541],[126.5792,33.2437],[126.5013,33.2303],[126.3893,33.235],[126.3109,33.2311],[126.2536,33.2126],[126.1818,33.2603],[126.1673,33.343],[126.2169,33.3841],[126.2585,33.4091],[126.2633,33.4307],[126.3693,33.4786],[126.4355,33.4952],[126.5162,33.5175],[126.6434,33.5535],[126.7371,33.5594],[126.779,33.566],[126.7791,33.5661]]]}},{"type":"Feature","properties":{"code":"29","name":"세종특별자치시","center":[127.2767,36.5739]},"geometry":{"type":"Polygon","coordinates":[[[127.1661,36.7335],[127.1973,36.7282],[127.2396,36.703],[127.2956,36.6866],[127.2836,36.6474],[127.292,36.6344],[127.3023,36.6065],[127.3217,36.5834],[127.3386,36.5626],[127.3662,36.5639],[127.3727,36.5597],[127.4076,36.5293],[127.3927,36.4942],[127.3612,36.4779],[127.3567,36.4589],[127.3315,36.4252],[127.2894,36.416],[127.2587,36.4143],[127.2446,36.4144],[127.2011,36.4417],[127.1921,36.4904],[127.1746,36.4997],[127.1733,36.5334],[127.1894,36.5573],[127.193,36.5808],[127.1711,36.598],[127.1565,36.6294],[127.164,36.678],[127.154,36.6908],[127.1457,36.7181],[127.1599,36.7329],[127.1661,36.7335]]]}}]}